{
  "type": "FeatureCollection",
  "features": [
    {
      "type": "Feature",
      "properties": {
        "norad_id": 43207,
        "name": "BEIDOU-3 M4 (C22)",
        "group": "beidou",
        "lat": -24.513643392617045,
        "lon": -93.08518595041814,
        "alt_km": 21542.358735457423,
        "timestamp": "2025-12-11T13:55:02.430243+00:00",
        "meta_object_name": "BEIDOU-3 M4 (C22)",
        "meta_object_id": "2018-018A",
        "meta_epoch": "2025-12-08T13:58:21.554688",
        "meta_mean_motion": 1.86230863,
        "meta_eccentricity": 0.00041601,
        "meta_inclination": 56.4826,
        "meta_ra_of_asc_node": 69.4414,
        "meta_arg_of_pericenter": 11.0555,
        "meta_mean_anomaly": 348.9749,
        "meta_ephemeris_type": 0,
        "meta_classification_type": "U",
        "meta_norad_cat_id": 43207,
        "meta_element_set_no": 999,
        "meta_rev_at_epoch": 5319,
        "meta_bstar": 0,
        "meta_mean_motion_dot": -4.5e-07,
        "meta_mean_motion_ddot": 0,
        "tle_line1": "1 43207U 18018A   25342.58219392 -.00000045  00000+0  00000+0 0  9997",
        "tle_line2": "2 43207  56.4826  69.4414 0004160  11.0555 348.9749  1.86230863 53194"
      },
      "geometry": {
        "type": "Point",
        "coordinates": [
          -93.08518595041814,
          -24.513643392617045
        ]
      }
    },
    {
      "type": "Feature",
      "properties": {
        "norad_id": 43208,
        "name": "BEIDOU-3 M3 (C21)",
        "group": "beidou",
        "lat": 12.329369574340163,
        "lon": -118.96355599259103,
        "alt_km": 21542.824718106436,
        "timestamp": "2025-12-11T13:55:02.430254+00:00",
        "meta_object_name": "BEIDOU-3 M3 (C21)",
        "meta_object_id": "2018-018B",
        "meta_epoch": "2025-12-10T19:07:00.604992",
        "meta_mean_motion": 1.86231201,
        "meta_eccentricity": 0.00065395,
        "meta_inclination": 56.4841,
        "meta_ra_of_asc_node": 69.3721,
        "meta_arg_of_pericenter": 317.1665,
        "meta_mean_anomaly": 42.8042,
        "meta_ephemeris_type": 0,
        "meta_classification_type": "U",
        "meta_norad_cat_id": 43208,
        "meta_element_set_no": 999,
        "meta_rev_at_epoch": 5323,
        "meta_bstar": 0,
        "meta_mean_motion_dot": -5.7e-07,
        "meta_mean_motion_ddot": 0,
        "tle_line1": "1 43208U 18018B   25344.79653478 -.00000057  00000+0  00000+0 0  9993",
        "tle_line2": "2 43208  56.4841  69.3721 0006539 317.1665  42.8042  1.86231201 53234"
      },
      "geometry": {
        "type": "Point",
        "coordinates": [
          -118.96355599259103,
          12.329369574340163
        ]
      }
    },
    {
      "type": "Feature",
      "properties": {
        "norad_id": 43245,
        "name": "BEIDOU-3 M9 (C29)",
        "group": "beidou",
        "lat": 16.357109201588386,
        "lon": -41.365997402844584,
        "alt_km": 21527.74241314734,
        "timestamp": "2025-12-11T13:55:02.430265+00:00",
        "meta_object_name": "BEIDOU-3 M9 (C29)",
        "meta_object_id": "2018-029A",
        "meta_epoch": "2025-12-09T09:38:36.109248",
        "meta_mean_motion": 1.86227964,
        "meta_eccentricity": 0.00016746,
        "meta_inclination": 54.3687,
        "meta_ra_of_asc_node": 306.5834,
        "meta_arg_of_pericenter": 274.0787,
        "meta_mean_anomaly": 85.8921,
        "meta_ephemeris_type": 0,
        "meta_classification_type": "U",
        "meta_norad_cat_id": 43245,
        "meta_element_set_no": 999,
        "meta_rev_at_epoch": 5236,
        "meta_bstar": 0,
        "meta_mean_motion_dot": -7.6e-07,
        "meta_mean_motion_ddot": 0,
        "tle_line1": "1 43245U 18029A   25343.40180682 -.00000076  00000+0  00000+0 0  9996",
        "tle_line2": "2 43245  54.3687 306.5834 0001674 274.0787  85.8921  1.86227964 52369"
      },
      "geometry": {
        "type": "Point",
        "coordinates": [
          -41.365997402844584,
          16.357109201588386
        ]
      }
    },
    {
      "type": "Feature",
      "properties": {
        "norad_id": 43246,
        "name": "BEIDOU-3 M10 (C30)",
        "group": "beidou",
        "lat": 46.78711389487984,
        "lon": -3.752340058463692,
        "alt_km": 21517.83389737582,
        "timestamp": "2025-12-11T13:55:02.430277+00:00",
        "meta_object_name": "BEIDOU-3 M10 (C30)",
        "meta_object_id": "2018-029B",
        "meta_epoch": "2025-12-10T09:51:50.083776",
        "meta_mean_motion": 1.86228788,
        "meta_eccentricity": 0.00039909,
        "meta_inclination": 54.3654,
        "meta_ra_of_asc_node": 306.5763,
        "meta_arg_of_pericenter": 359.52,
        "meta_mean_anomaly": 0.4707,
        "meta_ephemeris_type": 0,
        "meta_classification_type": "U",
        "meta_norad_cat_id": 43246,
        "meta_element_set_no": 999,
        "meta_rev_at_epoch": 5236,
        "meta_bstar": 0,
        "meta_mean_motion_dot": -8.1e-07,
        "meta_mean_motion_ddot": 0,
        "tle_line1": "1 43246U 18029B   25344.41099634 -.00000081  00000+0  00000+0 0  9991",
        "tle_line2": "2 43246  54.3654 306.5763 0003990 359.5200   0.4707  1.86228788 52367"
      },
      "geometry": {
        "type": "Point",
        "coordinates": [
          -3.752340058463692,
          46.78711389487984
        ]
      }
    },
    {
      "type": "Feature",
      "properties": {
        "norad_id": 43539,
        "name": "BEIDOU-2 IGSO-7 (C16)",
        "group": "beidou",
        "lat": -42.61510213431019,
        "lon": 24.5557188547665,
        "alt_km": 35405.54219702206,
        "timestamp": "2025-12-11T13:55:02.430288+00:00",
        "meta_object_name": "BEIDOU-2 IGSO-7 (C16)",
        "meta_object_id": "2018-057A",
        "meta_epoch": "2025-12-10T21:52:21.696672",
        "meta_mean_motion": 1.00257387,
        "meta_eccentricity": 0.0092503,
        "meta_inclination": 55.1742,
        "meta_ra_of_asc_node": 164.6867,
        "meta_arg_of_pericenter": 235.2118,
        "meta_mean_anomaly": 119.0859,
        "meta_ephemeris_type": 0,
        "meta_classification_type": "U",
        "meta_norad_cat_id": 43539,
        "meta_element_set_no": 999,
        "meta_rev_at_epoch": 2723,
        "meta_bstar": 0,
        "meta_mean_motion_dot": -5.8e-07,
        "meta_mean_motion_ddot": 0,
        "tle_line1": "1 43539U 18057A   25344.91136223 -.00000058  00000+0  00000+0 0  9992",
        "tle_line2": "2 43539  55.1742 164.6867 0092503 235.2118 119.0859  1.00257387 27239"
      },
      "geometry": {
        "type": "Point",
        "coordinates": [
          24.5557188547665,
          -42.61510213431019
        ]
      }
    },
    {
      "type": "Feature",
      "properties": {
        "norad_id": 43581,
        "name": "BEIDOU-3 M5 (C23)",
        "group": "beidou",
        "lat": -53.95674227396142,
        "lon": 103.85985299926337,
        "alt_km": 21533.05782698742,
        "timestamp": "2025-12-11T13:55:02.430300+00:00",
        "meta_object_name": "BEIDOU-3 M5 (C23)",
        "meta_object_id": "2018-062A",
        "meta_epoch": "2025-12-07T09:56:06.099936",
        "meta_mean_motion": 1.86228656,
        "meta_eccentricity": 0.00021227,
        "meta_inclination": 54.0892,
        "meta_ra_of_asc_node": 188.8244,
        "meta_arg_of_pericenter": 353.0314,
        "meta_mean_anomaly": 7.0363,
        "meta_ephemeris_type": 0,
        "meta_classification_type": "U",
        "meta_norad_cat_id": 43581,
        "meta_element_set_no": 999,
        "meta_rev_at_epoch": 5006,
        "meta_bstar": 0,
        "meta_mean_motion_dot": 5.9e-07,
        "meta_mean_motion_ddot": 0,
        "tle_line1": "1 43581U 18062A   25341.41395949  .00000059  00000+0  00000+0 0  9999",
        "tle_line2": "2 43581  54.0892 188.8244 0002122 353.0314   7.0363  1.86228656 50066"
      },
      "geometry": {
        "type": "Point",
        "coordinates": [
          103.85985299926337,
          -53.95674227396142
        ]
      }
    },
    {
      "type": "Feature",
      "properties": {
        "norad_id": 43582,
        "name": "BEIDOU-3 M6 (C24)",
        "group": "beidou",
        "lat": 3.9225448726037353,
        "lon": -168.47394098006419,
        "alt_km": 21511.75638690487,
        "timestamp": "2025-12-11T13:55:02.430311+00:00",
        "meta_object_name": "BEIDOU-3 M6 (C24)",
        "meta_object_id": "2018-062B",
        "meta_epoch": "2025-12-09T23:05:00.502368",
        "meta_mean_motion": 1.86229858,
        "meta_eccentricity": 0.0007797,
        "meta_inclination": 54.0887,
        "meta_ra_of_asc_node": 188.7266,
        "meta_arg_of_pericenter": 46.9981,
        "meta_mean_anomaly": 313.1258,
        "meta_ephemeris_type": 0,
        "meta_classification_type": "U",
        "meta_norad_cat_id": 43582,
        "meta_element_set_no": 999,
        "meta_rev_at_epoch": 5011,
        "meta_bstar": 0,
        "meta_mean_motion_dot": 5.2e-07,
        "meta_mean_motion_ddot": 0,
        "tle_line1": "1 43582U 18062B   25343.96181137  .00000052  00000+0  00000+0 0  9997",
        "tle_line2": "2 43582  54.0887 188.7266 0007797  46.9981 313.1258  1.86229858 50110"
      },
      "geometry": {
        "type": "Point",
        "coordinates": [
          -168.47394098006419,
          3.9225448726037353
        ]
      }
    }
  ]
}